NORAD_CAT_ID,OBJECT_NAME,OBJECT_TYPE,EPOCH,MEAN_MOTION,ECCENTRICITY,INCLINATION,RA_OF_ASC_NODE,ARG_OF_PERICENTER,MEAN_ANOMALY,BSTAR,MEAN_MOTION_DOT,MEAN_MOTION_DDOT,TLE_LINE0,TLE_LINE1,TLE_LINE2,SEMIMAJOR_AXIS,PERIOD,APOGEE,PERIGEE,DECAYED
52637.0,STARLINK-3961,PAYLOAD,2022-07-24 14:00:01,15.71045332,0.0002491,53.2172,89.4639,3.8445,44.4279,-0.0091512,-0.01054487,0.0,0 STARLINK-3961,1 52637U 22052AR  22205.58334491 -.01054487  00000-0 -91512-2 0  9993,2 52637  53.2172  89.4639 0002491   3.8445  44.4279 15.71045332 11524,6734.045,91.659,357.588,354.233,0.0
52637.0,STARLINK-3961,PAYLOAD,2022-07-24 22:00:00,15.70284304,0.0002813999999999,53.2171,87.8204,14.2821,119.8645,-0.0094116,-0.01050754,0.0,0 STARLINK-3961,1 52637U 22052AR  22205.91667824 -.01050754  00000-0 -94116-2 0  9995,2 52637  53.2171  87.8204 0002814  14.2821 119.8645 15.70284304  1308,6736.221,91.703,359.981,356.19,0.0
52637.0,STARLINK-3961,PAYLOAD,2022-07-25 14:00:01,15.68763587,0.0001018,53.2173,84.5334,54.8405,248.3202,-0.010003,-0.01047545,0.0,0 STARLINK-3961,1 52637U 22052AR  22206.58334491 -.01047545  00000-0 -10003-1 0  9996,2 52637  53.2173  84.5334 0001018  54.8405 248.3202 15.68763587 11671,6740.573,91.792,363.125,361.752,0.0
52637.0,STARLINK-3961,PAYLOAD,2022-07-25 22:00:00,15.680080800000002,0.0001388,53.2175,82.8955,41.9564,344.3386,-0.010378,-0.01052902,0.0,0 STARLINK-3961,1 52637U 22052AR  22206.91667824 -.01052902  00000-0 -10378-1 0  9990,2 52637  53.2175  82.8955 0001388  41.9564 344.3386 15.68008080  1305,6742.738,91.836,365.539,363.668,0.0
52637.0,STARLINK-3961,PAYLOAD,2022-07-26 04:00:01,15.67437727,0.0001078,53.2171,81.6672,59.382,298.7319,-0.010598,-0.01050435,0.0,0 STARLINK-3961,1 52637U 22052AR  22207.16668981 -.01050435  00000-0 -10598-1 0  9996,2 52637  53.2171  81.6672 0001078  59.3820 298.7319 15.67437727 11760,6744.374,91.87,366.966,365.512,0.0
52637.0,STARLINK-3961,PAYLOAD,2022-07-26 14:00:01,15.66488087,0.0001255,53.2173,79.6196,71.3531,118.4797,-0.011027,-0.01051309,0.0,0 STARLINK-3961,1 52637U 22052AR  22207.58334491 -.01051309  00000-0 -11027-1 0  9997,2 52637  53.2173  79.6196 0001255  71.3531 118.4797 15.66488087  1301,6747.099,91.925,369.811,368.11800000000005,0.0
52637.0,STARLINK-3961,PAYLOAD,2022-07-26 20:00:01,15.65915923,0.0001298,53.2173,78.3952,64.50399999999999,95.7137,-0.011229,-0.01046533,0.0,0 STARLINK-3961,1 52637U 22052AR  22207.83334491 -.01046533  00000-0 -11229-1 0  9992,2 52637  53.2173  78.3952 0001298  64.5040  95.7137 15.65915923 11874,6748.743,91.959,371.484,369.732,0.0
52637.0,STARLINK-3961,PAYLOAD,2022-07-26 22:00:00,15.65727802,0.0001213,53.2172,77.9875,69.5406,200.6903,-0.011352,-0.01049591,0.0,0 STARLINK-3961,1 52637U 22052AR  22207.91667824 -.01049591  00000-0 -11352-1 0  9994,2 52637  53.2172  77.9875 0001213  69.5406 200.6903 15.65727802  1302,6749.283,91.97,371.967,370.33,0.0
52637.0,STARLINK-3961,PAYLOAD,2022-07-27 14:00:01,15.64208258,0.000121,53.2174,74.7224,57.0028,11.2898,-0.01205,-0.01048276,0.0,0 STARLINK-3961,1 52637U 22052AR  22208.58334491 -.01048276  00000-0 -12050-1 0  9994,2 52637  53.2174  74.7224 0001210  57.0028  11.2898 15.64208258 11999,6753.654,92.059,376.336,374.702,0.0
52637.0,STARLINK-3961,PAYLOAD,2022-07-27 22:00:00,15.63449454,0.000143,53.2174,73.0958,54.313,91.639,-0.012422,-0.01048542,0.0,0 STARLINK-3961,1 52637U 22052AR  22208.91667824 -.01048542  00000-0 -12422-1 0  9999,2 52637  53.2174  73.0958 0001430  54.3130  91.6390 15.63449454  1300,6755.839,92.104,378.67,376.73800000000006,0.0
52637.0,STARLINK-3961,PAYLOAD,2022-07-28 14:00:01,15.61929149,0.000117,53.2175,69.8419,66.2834,232.2545,-0.0131539999999999,-0.01062204,0.0,0 STARLINK-3961,1 52637U 22052AR  22209.58334491 -.01062204  00000-0 -13154-1 0  9998,2 52637  53.2175  69.8419 0001170  66.2834 232.2545 15.61929149  1307,6760.222,92.194,382.878,381.296,0.0
52637.0,STARLINK-3961,PAYLOAD,2022-07-28 22:00:00,15.61172733,0.0001234,53.2175,68.2209,54.0084,319.4503,-0.013618,-0.01067235,0.0,0 STARLINK-3961,1 52637U 22052AR  22209.91667824 -.01067235  00000-0 -13618-1 0  9998,2 52637  53.2175  68.2209 0001234  54.0084 319.4503 15.61172733 12190,6762.405,92.238,385.105,383.436,0.0
52637.0,STARLINK-3961,PAYLOAD,2022-07-29 14:00:01,15.59651421,0.000136,53.2174,64.97800000000001,61.5287,99.04,-0.014367,-0.01062178,0.0,0 STARLINK-3961,1 52637U 22052AR  22210.58334491 -.01062178  00000-0 -14367-1 0  9997,2 52637  53.2174  64.9780 0001360  61.5287  99.0400 15.59651421  1305,6766.802,92.328,389.587,387.747,0.0
52637.0,STARLINK-3961,PAYLOAD,2022-07-29 22:00:00,15.58891803,0.0001392,53.2173,63.3625,59.2417,173.5111,-0.014794,-0.01062383,0.0,0 STARLINK-3961,1 52637U 22052AR  22210.91667824 -.01062383  00000-0 -14794-1 0  9995,2 52637  53.2173  63.3625 0001392  59.2417 173.5111 15.58891803 12352,6769.0,92.373,391.807,389.923,0.0
52637.0,STARLINK-3961,PAYLOAD,2022-07-30 14:00:01,15.5737157,0.0001179,53.2175,60.1306,58.3658,316.0209,-0.01563,-0.01059699,0.0,0 STARLINK-3961,1 52637U 22052AR  22211.58334491 -.01059699  00000-0 -15630-1 0  9996,2 52637  53.2175  60.1306 0001179  58.3658 316.0209 15.57371570  1303,6773.405,92.463,396.068,394.471,0.0
52637.0,STARLINK-3961,PAYLOAD,2022-07-30 20:00:01,15.56803375,0.0001356,53.2173,58.923,46.4957,290.0604,-0.016009,-0.0106223999999999,0.0,0 STARLINK-3961,1 52637U 22052AR  22211.83334491 -.01062240  00000-0 -16009-1 0  9991,2 52637  53.2173  58.9230 0001356  46.4957 290.0604 15.56803375 12493,6775.053000000001,92.497,397.836,395.999,0.0
52637.0,STARLINK-3961,PAYLOAD,2022-07-30 22:00:00,15.56614648,0.0001529,53.2176,58.5206,43.4228,40.4089,-0.016149,-0.01063864,0.0,0 STARLINK-3961,1 52637U 22052AR  22211.91667824 -.01063864  00000-0 -16149-1 0  9997,2 52637  53.2176  58.5206 0001529  43.4228  40.4089 15.56614648  1300,6775.6,92.508,398.501,396.429,0.0
52637.0,STARLINK-3961,PAYLOAD,2022-07-31 14:00:01,15.55093818,0.0001395,53.2176,55.2997,59.9612,160.0283,-0.017015,-0.01059525,0.0,0 STARLINK-3961,1 52637U 22052AR  22212.58334491 -.01059525  00000-0 -17015-1 0  9994,2 52637  53.2176  55.2997 0001395  59.9612 160.0283 15.55093818 12611,6780.017,92.599,402.828,400.936,0.0
52637.0,STARLINK-3961,PAYLOAD,2022-07-31 22:00:00,15.54335315,0.0001383,53.2175,53.6952,53.2578,233.4396,-0.017541,-0.0106186,0.0,0 STARLINK-3961,1 52637U 22052AR  22212.91667824 -.01061860  00000-0 -17541-1 0  9999,2 52637  53.2175  53.6952 0001383  53.2578 233.4396 15.54335315  1302,6782.222,92.644,405.025,403.149,0.0
52637.0,STARLINK-3961,PAYLOAD,2022-08-01 14:00:01,15.52814511,0.0001378,53.2174,50.4852,47.5035,9.876,-0.018482,-0.01058536,0.0,0 STARLINK-3961,1 52637U 22052AR  22213.58334491 -.01058536  00000-0 -18482-1 0  9995,2 52637  53.2174  50.4852 0001378  47.5035   9.8760 15.52814511 12774,6786.65,92.735,409.45,407.58,0.0
52637.0,STARLINK-3961,PAYLOAD,2022-08-01 22:00:00,15.52055449,0.0001472,53.2173,48.8861,51.4303,69.919,-0.019008,-0.01059044,0.0,0 STARLINK-3961,1 52637U 22052AR  22213.91667824 -.01059044  00000-0 -19008-1 0  9991,2 52637  53.2173  48.8861 0001472  51.4303  69.9190 15.52055449  1309,6788.863,92.78,411.727,409.728,0.0
52637.0,STARLINK-3961,PAYLOAD,2022-08-02 14:00:01,15.50485117,0.0001568,53.2175,45.6878,55.1163,191.4399,-0.014488,-0.00773546,0.0,0 STARLINK-3961,1 52637U 22052AR  22214.58334491 -.00773546  00000-0 -14488-1 0  9992,2 52637  53.2175  45.6878 0001568  55.1163 191.4399 15.50485117 12924,6793.446,92.874,416.376,414.245,0.0
52637.0,STARLINK-3961,PAYLOAD,2022-08-03 04:00:00,15.49569807,0.0001311,53.2172,42.8973,56.0757,207.3238,-0.020868,-0.01063035,0.0,0 STARLINK-3961,1 52637U 22052AR  22215.16667824 -.01063035  00000-0 -20868-1 0  9991,2 52637  53.2172  42.8973 0001311  56.0757 207.3238 15.49569807 13018,6796.121,92.929,418.877,417.095,0.0
52637.0,STARLINK-3961,PAYLOAD,2022-08-03 14:00:01,15.48617751,0.0001436,53.2177,40.905,46.0967,22.2472,-0.021478,-0.01058331,0.0,0 STARLINK-3961,1 52637U 22052AR  22215.58334491 -.01058331  00000-0 -21478-1 0  9999,2 52637  53.2177  40.9050 0001436  46.0967  22.2472 15.48617751  1302,6798.906,92.986,421.747,419.794,0.0
52637.0,STARLINK-3961,PAYLOAD,2022-08-03 20:00:01,15.48050043,0.0001406999999999,53.2175,39.713,46.3932,336.2302,-0.021984,-0.01061489,0.0,0 STARLINK-3961,1 52637U 22052AR  22215.83334491 -.01061489  00000-0 -21984-1 0  9997,2 52637  53.2175  39.7130 0001407  46.3932 336.2302 15.48050043 13126,6800.568,93.02,423.39,421.476,0.0
52637.0,STARLINK-3961,PAYLOAD,2022-08-03 22:00:01,15.47855884,0.0001561999999999,53.2176,39.3157,46.9623,80.3734,-0.021973,-0.01054489,0.0,0 STARLINK-3961,1 52637U 22052AR  22215.91668981 -.01054489  00000-0 -21973-1 0  9990,2 52637  53.2176  39.3157 0001562  46.9623  80.3734 15.47855884  1305,6801.137,93.032,424.064,421.939,0.0
52637.0,STARLINK-3961,PAYLOAD,2022-08-04 14:00:01,15.46338324,0.0001455,53.2177,36.1373,54.9659,187.4225,-0.023203,-0.0105588,0.0,0 STARLINK-3961,1 52637U 22052AR  22216.58334491 -.01055880  00000-0 -23203-1 0  9994,2 52637  53.2177  36.1373 0001455  54.9659 187.4225 15.46338324  1308,6805.5859999999975,93.123,428.441,426.46,0.0
52637.0,STARLINK-3961,PAYLOAD,2022-08-04 20:00:01,15.45768513,0.0001425,53.2173,34.9495,66.5297,128.0858,-0.023663,-0.0105576,0.0,0 STARLINK-3961,1 52637U 22052AR  22216.83334491 -.01055760  00000-0 -23663-1 0  9999,2 52637  53.2173  34.9495 0001425  66.5297 128.0858 15.45768513 13277,6807.2580000000025,93.158,430.093,428.153,0.0
52637.0,STARLINK-3961,PAYLOAD,2022-08-04 22:00:00,15.45578076,0.0001237,53.2174,34.5534,67.6865,230.8908,-0.023791,-0.01054573,0.0,0 STARLINK-3961,1 52637U 22052AR  22216.91667824 -.01054573  00000-0 -23791-1 0  9990,2 52637  53.2174  34.5534 0001237  67.6865 230.8908 15.45578076  1304,6807.816999999999,93.169,430.524,428.84,0.0
